#dP2021  6 25  0  0  0.00000000      97 __u+U IGS14 FIT  IAC
## 2163 432000.00000000   900.00000000 59390 0.0000000000000
+  123   C01C02C03C04C05C06C07C08C09C10C11C12C13C14C16C19C20
+        C21C22C23C24C25C26C27C28C29C30C32C33C34C35C36C37C38
+        C39C40C41C42C43C44C45C46C60E01E02E03E04E05E07E08E09
+        E11E12E13E14E15E18E19E21E24E25E26E27E30E31E33E36G01
+        G02G03G04G05G06G07G08G09G10G12G13G14G15G16G17G18G19
+        G20G21G22G23G24G25G26G27G28G29G30G31G32J01J02J03J07
+        R01R02R03R04R05R07R08R09R11R12R13R14R15R16R17R18R19
+        R20R21R22R24  0  0  0  0  0  0  0  0  0  0  0  0  0
++        13 13 13  0 13  9 11  9  8  9  8  8  9  8  9  7  7
++         7  7  7  7  7  7  7  7  7  7  7  7  7  7  7  8  8
++         8  8  8  7  8  7  7  8 16  4  4  4  4  5  4  4  4
++         4  4  4  5  4  4  4  4  4  4  4  4  4  4  4  4  3
++         3  3  3  3  3  3  3  3  3  3  3  3  3  4  4  3  4
++         3  3  3  3  3  3  3  3  4  3  3  4  3  9  8  8 14
++         7  5  5  5  6  6  5  5  7  6  7  5  5  7  5  5  7
++         7  6  8  5  0  0  0  0  0  0  0  0  0  0  0  0  0
%c M  cc GPS ccc cccc cccc cccc cccc ccccc ccccc ccccc ccccc
%c cc cc ccc ccc cccc cccc cccc cccc ccccc ccccc ccccc ccccc
%f  1.2500000  1.025000000  0.00000000000  0.000000000000000
%f  0.0000000  0.000000000  0.00000000000  0.000000000000000
%i    0    0    0    0      0      0      0      0         0
%i    0    0    0    0      0      0      0      0         0
/* INFORMATION & ANALYSIS CENTER (IAC)            FINAL DATA
/* S/V CLOCKS ARE ALIGNED TO GNSS TIME                      
/* G:C1WC2W R:C1PC2P E:C1XC5X C:C2IC6I J:C1CC2S             
/* PCV:IGS14_2148 OL/AL:FES2004  NONE     YN ORB:CoN CLK:CoN
*  2021 06 25 23 45  0.00000000
PC01 -34300.352601  24552.551986    181.010887   -334.485025
PC02   4401.570730  41884.847709  -1470.441689    561.813103
PC03 -14694.543986  39491.297175   -913.159284   -143.478704
PC04      0.000000      0.000000      0.000000 999999.999999
PC05  21937.862907  35981.103123  -1154.473045    -73.025506
PC06 -10952.042983  36954.111312 -16026.072634    547.654506
PC07 -12291.054298  23773.714808  32838.445759     34.371702
PC08 -24586.863863  28789.628166 -18868.389928   -897.489303
PC09  -2277.654157  41814.087334  -1704.466415    420.647362
PC10   3075.288714  28672.951565  31104.060921    -25.660546
PC11  15364.491702  -4940.619846 -22705.123941    421.300157
PC12  11970.236030  15504.470220 -19858.487818    831.831350
PC13 -13209.942572  29570.278871 -27047.172608    313.603097
PC14  23367.954838   2772.790269  15074.246174    865.126065
PC16  -9062.052038  38375.690744 -14498.099411   -922.564257
PC19 -17700.407227   5596.600030 -20800.249846    886.057065
PC20 -24892.294945  -9320.714815  -8424.293464   -864.196931
PC21  17539.204560  19464.540185  -9624.298567   -935.088645
PC22     -1.629117  17784.534700 -21507.559582   -949.075017
PC23  10891.603788 -19077.913455 -17200.528143   -948.114945
PC24  23391.153086    609.666460  15190.657406   -909.804980
PC25  23907.120107 -14220.718360  -2105.438604   -895.388754
PC26   9932.567327  13008.009566  22595.727801    887.503410
PC27  -7510.160642 -23300.692230  13385.571211    554.268286
PC28   4665.192746 -27251.925572  -3762.797903    -57.984217
PC29 -13510.651034  15740.896663  18653.641434    411.073204
PC30 -15406.483015  -5753.648455  22537.172900    471.931727
PC32 -17617.393194 -19349.769397   9690.342627   -924.287368
PC33  17778.032849  -5647.170279  20771.531758   -938.431302
PC34  15571.350372   4859.535968 -22653.749591   -642.131781
PC35  -3947.940125  27301.412111   4092.424344   -216.152020
PC36 -24369.790653  13479.649141   1782.603120   -729.061293
PC37  -8734.043967 -13718.208357 -22655.822142   -870.835344
PC38 -21902.227008  30360.798808 -19524.626216    157.634603
PC39  -5692.206271  39413.505596 -13597.603420     31.990574
PC40  -2717.086924  23627.374600  34867.011237    174.530925
PC41    361.670209 -17682.532939  21636.896145   -951.434122
PC42  24961.734664   9826.214103   7772.686066   -915.092151
PC43  13870.595779 -15160.218946 -18903.486952   -793.170660
PC44   8296.073297  23122.833898 -13222.027511    258.076884
PC45 -10754.947052  19026.183571  17370.196672    476.985999
PC46 -23874.610112    367.316881 -14457.903033    207.432649
PC60   7327.943002  41530.565595    402.028380     -0.636049
PE01   2138.817487  16527.364872  24466.975199  -1137.027552
PE02  -2306.484681 -16520.094652 -24451.643946    228.643261
PE03  -6941.188072 -26995.209612   9943.966495   -445.946820
PE04  18649.392001  21429.653932   8333.841236   -800.208821
PE05   9020.564188 -16789.714760  22654.171402   -270.057428
PE07 -19532.951756  -3075.852533 -22011.472573   -554.271527
PE08 -18810.554883 -21139.396790  -8654.224333   5980.162976
PE09  19400.156068   2874.240297  22185.318018   5621.287886
PE11  20088.255552  -8015.571797 -20230.174287   5803.048321
PE12  10835.340885  12925.186865 -24329.704066   5141.884587
PE13 -19916.763156   7659.195846  20508.377160    418.220631
PE14  16574.266084 -12668.971520 -23390.061393  -1478.862080
PE15 -10820.047320 -12837.093412  24377.444978    806.822404
PE18  -5680.494426  21553.560961  13008.892061  -1620.138429
PE19   5210.655530  26582.897191 -11921.915364    311.429000
PE21 -18597.386303  12644.921499  19247.119360   -672.749522
PE24  29528.173121   -580.064082  -1842.320027   -974.570013
PE25  18793.042299 -12549.183408 -19110.451297   -538.064380
PE26 -17019.125177  23933.798094   3711.126557   1650.829068
PE27 -29453.137718   1282.955991   2684.125350    -62.225865
PE30 -22091.412408 -11393.350233 -16084.836871   2833.957896
PE31  22910.032284  10763.745053  15356.441783   -482.598442
PE33  -4620.113548  25724.081820 -13891.889219   -468.609109
PE36  17275.161435 -23601.800687  -4580.890062   -225.963888
PG01 -12790.439307  21823.098083  -7759.739290    647.174393
PG02  19854.695797 -10502.091016 -13568.620036   -615.123287
PG03  -7961.352109  13444.164425 -21551.205942   -202.410374
PG04  -2748.523394  22911.218426 -13090.856942   -200.898296
PG05  20781.170370  -7178.328206  14875.698796    -46.044733
PG06  16860.185479   1480.289275 -20430.661038     31.603498
PG07    124.205182  19374.643159  18305.694817    187.464243
PG08  -9182.517665  14985.351684  19805.822981    -26.486350
PG09   6675.065959  25513.041705  -3118.197333   -352.853980
PG10 -21426.032410 -11834.143276  10761.217429   -149.671093
PG12   9935.127111 -12409.003414 -21508.245486    -60.048688
PG13  13879.059574  -6445.079697  21562.370719    149.609093
PG14  20882.997170  12751.140304  10376.051481     61.557128
PG15   7905.790057 -16363.048075  18887.954338   -139.847310
PG16 -24344.851704    439.217195  10897.203407   -347.148307
PG17  12824.893833  20478.222478 -10593.554442    464.201029
PG18  -2092.479464 -17668.728866  19683.006395    344.828299
PG19  15182.516640  12753.200226 -18021.433777     18.194672
PG20  23380.297669  -6380.527422  10450.640153    520.801748
PG21 -16918.754923  20078.581801   1845.955312    127.393599
PG22 -16722.128192  11019.532625 -17165.596359   -579.192646
PG23 -11414.276816 -15115.550991  18620.375896     92.554504
PG24  14615.924627 -21822.628017  -2271.854026    148.908543
PG25  -3617.988848 -15892.544173 -21280.169582    162.492499
PG26 -26424.902152  -3860.196013    402.794306    102.986076
PG27 -14471.506781   3372.896657  21845.951275   -153.091172
PG28  23588.393483  10975.123138   5359.621812    548.450175
PG29  -3831.136665 -25945.328957  -4054.935701   -370.178263
PG30  11553.158156  10733.705861  21437.135282   -443.444143
PG31 -18807.517499    482.555246 -19009.433371   -125.146001
PG32 -15434.669426 -17556.945746 -12654.386805     17.031809
PJ01 -23033.638920  17654.562730 -26008.335752   -402.879532
PJ02 -30724.749191  23833.307533  21124.995959     -0.430594
PJ03 -27502.225125  27607.206800  21025.940244     -9.155631
PJ07 -25348.766766  33691.515783    -15.447214     -0.029885
PR01   8223.045898  -7464.641416  22969.141161     81.421505
PR02  -9381.556270 -18784.504173  14571.697373    483.733402
PR03 -18985.593945 -16940.045730  -2105.646452     38.353288
PR04 -17660.648726  -5730.942401 -17462.402898     92.950101
PR05  -6594.601336   8651.968276 -23056.727186     74.222636
PR07  19137.519111  16582.276838   2926.391952    -42.227899
PR08  17697.053799   5508.098918  17574.568650    -59.677864
PR09   -829.876384  11865.475251  22576.670432     -0.241377
PR11  24541.819275  -5169.937373   4708.001100    -15.422404
PR12  18347.890184 -11871.822510 -13113.599470    240.202610
PR13   1774.254823 -11797.121796 -22558.530672    -56.834374
PR14 -16653.892059  -4541.282919 -18756.865227     65.759156
PR15 -24649.275387   5097.996067  -4097.016172    103.040268
PR16 -17312.106303  12611.784959  13932.804929    -16.936574
PR17  -6365.296308 -13330.532102  20784.273664    435.773488
PR18 -11499.571214   4328.010653  22351.484631     81.294339
PR19 -11331.389920  18963.211209  12750.745206   -149.164989
PR20  -3738.351062  24212.974532  -7027.610101    -51.477746
PR21   6778.212054  12227.986629 -21349.646620   -219.259822
PR22  11656.581069  -5526.372650 -22045.893157   -119.532254
PR24   2817.851468 -24161.677369   7663.088754     47.982305
EOF
